[{"OBJECT_NAME":"EOSSAT-1","OBJECT_ID":"2023-001AW","EPOCH":"2026-03-09T17:40:07.010400","MEAN_MOTION":15.32339828,"ECCENTRICITY":0.00112629,"INCLINATION":97.3357,"RA_OF_ASC_NODE":130.2294,"ARG_OF_PERICENTER":110.3168,"MEAN_ANOMALY":249.9285,"EPHEMERIS_TYPE":0,"CLASSIFICATION_TYPE":"U","NORAD_CAT_ID":55053,"ELEMENT_SET_NO":999,"REV_AT_EPOCH":17668,"BSTAR":0.00024844399,"MEAN_MOTION_DOT":7.695e-5,"MEAN_MOTION_DDOT":0},{"OBJECT_NAME":"STARLINK-33944","OBJECT_ID":"2025-117G","EPOCH":"2026-03-09T04:53:40.886880","MEAN_MOTION":15.30192314,"ECCENTRICITY":0.00012388,"INCLINATION":53.1606,"RA_OF_ASC_NODE":41.7035,"ARG_OF_PERICENTER":91.7874,"MEAN_ANOMALY":268.3269,"EPHEMERIS_TYPE":0,"CLASSIFICATION_TYPE":"U","NORAD_CAT_ID":64209,"ELEMENT_SET_NO":999,"REV_AT_EPOCH":4448,"BSTAR":0.0010320621,"MEAN_MOTION_DOT":0.00030325,"MEAN_MOTION_DDOT":0}]
