EOSSAT-1                
1 55053U 23001AW  26068.73619225  .00007695  00000+0  24844-3 0  9992
2 55053  97.3357 130.2294 0011263 110.3168 249.9285 15.32339828176689
STARLINK-33944          
1 64209U 25117G   26068.20394545  .00030325  00000+0  10321-2 0  9992
2 64209  53.1606  41.7035 0001238  91.7874 268.3269 15.30192314 44489
